QIANFAN-60              
1 62790U 25016F   25311.15507275  .00000042  00000+0  46348-4 0  9996
2 62790  88.9730 106.7564 0017460  87.3708 272.9441 13.50973677 42420
QIANFAN-61              
1 62791U 25016G   25311.18779421  .00000040  00000+0  42559-4 0  9992
2 62791  88.9797 106.8917 0016396  86.7470 273.5557 13.50977068 42448
QIANFAN-62              
1 62792U 25016H   25311.19205181  .00000035  00000+0  34738-4 0  9995
2 62792  88.9744 106.7790 0017782  87.0309 273.2877 13.50980664 42431
QIANFAN-63              
1 62793U 25016J   25311.14261872  .00000047  00000+0  54390-4 0  9999
2 62793  88.9750 106.7332 0017845  91.9891 268.3303 13.50973834 42464
QIANFAN-64              
1 62794U 25016K   25311.18372212  .00000043  00000+0  47770-4 0  9995
2 62794  88.9737 106.7078 0015760  85.6208 274.6743 13.50975639 42466
QIANFAN-65              
1 62795U 25016L   25311.17964852  .00000042  00000+0  45782-4 0  9992
2 62795  88.9733 106.7356 0015597  87.2253 273.0683 13.50974606 42445
QIANFAN-66              
1 62796U 25016M   25311.13441933  .00000042  00000+0  46195-4 0  9998
2 62796  88.9753 106.7034 0016685  83.2940 277.0109 13.50978603 42481
QIANFAN-67              
1 62797U 25016N   25311.13853867  .00000051  00000+0  60156-4 0  9995
2 62797  88.9743 106.7320 0016692  89.4999 270.8065 13.50971456 42457
QIANFAN-68              
1 62798U 25016P   25311.13029595  .00000049  00000+0  56939-4 0  9990
2 62798  88.9747 106.7767 0016740  87.9451 272.3616 13.50973783 42439
QIANFAN-69              
1 62799U 25016Q   25311.14683403  .00000043  00000+0  47336-4 0  9991
2 62799  88.9725 106.6521 0017500  88.8004 271.5152 13.50971103 42476
QIANFAN-70              
1 62800U 25016R   25311.16310442  .00000053  00000+0  63162-4 0  9992
2 62800  88.9746 106.7814 0017038  80.0551 280.2522 13.50974098 42435
QIANFAN-71              
1 62801U 25016S   25311.15907649  .00000038  00000+0  40355-4 0  9995
2 62801  88.9740 106.7635 0017431  91.9424 268.3724 13.50974809 42439
QIANFAN-72              
1 62802U 25016T   25311.17555019  .00000050  00000+0  57814-4 0  9990
2 62802  88.9731 106.7787 0020697  98.4615 261.8883 13.50974650 42427
QIANFAN-73              
1 63159U 25046A   25311.20240333  .00000033  00000+0  33167-4 0  9999
2 63159  88.9757 323.7053 0013637 221.1253 138.8872 13.50972666 42614
QIANFAN-74              
1 63160U 25046B   25311.11183752  .00000047  00000+0  54441-4 0  9995
2 63160  88.9758 323.6031 0002060  91.5211 268.6176 13.50974585 42669
QIANFAN-75              
1 63161U 25046C   25311.17334774  .00000118  00000+0  16483-3 0  9996
2 63161  88.9760 323.8298 0014686 225.0072 134.9890 13.50985217 42545
QIANFAN-76              
1 63162U 25046D   25311.16948991 -.00000095  00000+0 -16495-3 0  9997
2 63162  88.9758 323.8110 0012250 224.9461 135.0700 13.50969097 42552
QIANFAN-77              
1 63163U 25046E   25311.13558921  .00000148  00000+0  98181-4 0  9995
2 63163  88.9758 322.1137 0014524 183.5805 176.5270 13.96080671 43489
QIANFAN-78              
1 63164U 25046F   25311.13655792  .00000018  00000+0  90524-5 0  9990
2 63164  88.9756 323.6787 0013594 228.0960 131.9033 13.50974187 42629
QIANFAN-79              
1 63165U 25046G   25311.16524661  .00000037  00000+0  38562-4 0  9998
2 63165  88.9762 323.7821 0013289 225.7937 134.2123 13.50974305 42578
QIANFAN-80              
1 63166U 25046H   25311.10772907  .00000084  00000+0  11174-3 0  9992
2 63166  88.9759 323.4956 0012160 230.4702 129.5375 13.50976752 42722
QIANFAN-81              
1 63167U 25046J   25311.16072324  .00000113  00000+0  15597-3 0  9991
2 63167  88.9759 323.5584 0013460 217.7944 142.2263 13.50992674 42685
QIANFAN-82              
1 63168U 25046K   25311.19418230  .00000064  00000+0  80809-4 0  9999
2 63168  88.9759 323.5986 0011414 225.5707 134.4511 13.50973570 42675
QIANFAN-83              
1 63169U 25046L   25311.14072584  .00000066  00000+0  69190-4 0  9995
2 63169  88.9759 323.4505 0012989 212.1253 147.9114 13.61967461 42759
QIANFAN-84              
1 63170U 25046M   25311.14820667 -.00000018  00000+0 -46075-4 0  9996
2 63170  88.9757 323.7362 0014476 223.1998 136.8018 13.50986706 42597
QIANFAN-85              
1 63171U 25046N   25311.14475448  .00000108  00000+0  14829-3 0  9999
2 63171  88.9758 323.6084 0011782 224.6886 135.3317 13.50977643 42662
QIANFAN-86              
1 63172U 25046P   25311.15304560  .00000096  00000+0  12987-3 0  9996
2 63172  88.9761 323.4689 0009573 228.3245 131.7088 13.50974911 42740
QIANFAN-87              
1 63173U 25046Q   25311.12425758  .00000005  00000+0 -10377-4 0  9990
2 63173  88.9757 323.5849 0010336 223.2413 136.7928 13.50969910 42678
QIANFAN-88              
1 63174U 25046R   25311.14071734  .00000087  00000+0  11623-3 0  9997
2 63174  88.9759 323.5368 0010565 232.4997 127.5195 13.50972823 42705
QIANFAN-89              
1 63175U 25046S   25311.17755999  .00000096  00000+0  13031-3 0  9998
2 63175  88.9760 323.7221 0015113 223.6213 136.3744 13.50975269 42609
QIANFAN-90              
1 63176U 25046T   25311.13222057  .00000016  00000+0  55993-5 0  9996
2 63176  88.9758 323.6990 0012135 220.7876 139.2368 13.50974061 42617
QIANFAN-91              
1 66033U 25233A   25311.11271243  .00000785  00000+0  32331-3 0  9990
2 66033  88.9953  66.1325 0016673 144.3919 215.8391 14.25920062  2966
QIANFAN-92              
1 66034U 25233B   25311.11188071  .00000789  00000+0  32429-3 0  9999
2 66034  88.9952  66.1321 0016274 146.8619 213.3597 14.26001867  2968
QIANFAN-93              
1 66035U 25233C   25311.11063971  .00000794  00000+0  32596-3 0  9992
2 66035  88.9953  66.1321 0015588 146.2417 213.9772 14.26085550  2969
QIANFAN-94              
1 66036U 25233D   25311.11032860  .00000796  00000+0  32646-3 0  9994
2 66036  88.9953  66.1322 0015657 145.8912 214.3291 14.26110731  2964
QIANFAN-95              
1 66037U 25233E   25311.10992619  .00000792  00000+0  32470-3 0  9992
2 66037  88.9953  66.1321 0015618 146.2778 213.9412 14.26155876  2965
QIANFAN-96              
1 66038U 25233F   25311.10966203  .00000769  00000+0  31480-3 0  9997
2 66038  88.9953  66.1320 0016265 148.1329 212.0852 14.26159614  2969
QIANFAN-97              
1 66039U 25233G   25311.10955728  .00000776  00000+0  31770-3 0  9998
2 66039  88.9953  66.1320 0015837 147.6228 212.5940 14.26165560  2966
QIANFAN-98              
1 66040U 25233H   25311.10927451  .00000774  00000+0  31695-3 0  9996
2 66040  88.9953  66.1320 0015469 146.4044 213.8134 14.26186986  2966
QIANFAN-99              
1 66041U 25233J   25311.10911947  .00000775  00000+0  31721-3 0  9991
2 66041  88.9953  66.1319 0015603 145.5167 214.7042 14.26202509  2969
QIANFAN-100             
1 66042U 25233K   25311.10902115  .00000779  00000+0  31888-3 0  9997
2 66042  88.9953  66.1320 0016057 147.1323 213.0872 14.26218093  2966
QIANFAN-101             
1 66043U 25233L   25311.10593041  .00000467  00000+0  18695-3 0  9997
2 66043  88.9953  66.1315 0016011 145.3641 214.8599 14.26637251  2960
QIANFAN-102             
1 66044U 25233M   25311.10890919  .00000792  00000+0  32422-3 0  9997
2 66044  88.9952  66.1318 0016429 147.2561 212.9655 14.26222364  2965
QIANFAN-103             
1 66045U 25233N   25311.10856942  .00000791  00000+0  32358-3 0  9993
2 66045  88.9953  66.1320 0015815 146.0412 214.1797 14.26251596  2960
QIANFAN-104             
1 66046U 25233P   25311.10832093  .00000799  00000+0  32673-3 0  9993
2 66046  88.9953  66.1320 0015801 148.2731 211.9418 14.26272359  2969
QIANFAN-105             
1 66047U 25233Q   25311.10786306  .00000792  00000+0  32356-3 0  9990
2 66047  88.9952  66.1317 0015990 148.3994 211.8163 14.26330678  2961
QIANFAN-106             
1 66048U 25233R   25311.10790991  .00000778  00000+0  31766-3 0  9994
2 66048  88.9953  66.1318 0015854 148.0764 212.1393 14.26313954  2962
QIANFAN-107             
1 66049U 25233S   25311.10766900  .00000777  00000+0  31712-3 0  9998
2 66049  88.9952  66.1317 0016649 146.2335 213.9922 14.26342844  2965
QIANFAN-108             
1 66050U 25233T   25311.10739206  .00000778  00000+0  31762-3 0  9995
2 66050  88.9952  66.1315 0016618 147.9274 212.2934 14.26355881  2961
